{
  "norad_id": 55924,
  "name": "STARLINK-5849",
  "history": [
    {
      "epoch": "2026-03-28T20:01:25.737024",
      "apogee_km": 574.0870411380265,
      "perigee_km": 570.0021414095718,
      "latitude_deg": -20.997140816643277,
      "longitude_deg": -147.50473664002493,
      "semi_major_axis_km": 6950.181591273799,
      "eccentricity": 0.00029387,
      "inclination_deg": 69.9995,
      "raan_deg": 236.3516,
      "arg_perigee_deg": 269.7232,
      "mean_anomaly_deg": 90.3591,
      "mean_motion_rev_day": 14.98333654
    }
  ]
}