{"fetched_at":"2026-03-29T16:36:15Z","count":15609,"tles":[{"name":"STARLINK-5849","line1":"1 55924U 23037L   26087.83432566  .00000351  00000+0  37225-4 0  9991","line2":"2 55924  69.9995 236.3516 0002938 269.7232  90.3591 14.98333654166841","category":"Starlink"}]}